OBJECT_NAME,OBJECT_ID,EPOCH,MEAN_MOTION,ECCENTRICITY,INCLINATION,RA_OF_ASC_NODE,ARG_OF_PERICENTER,MEAN_ANOMALY,EPHEMERIS_TYPE,CLASSIFICATION_TYPE,NORAD_CAT_ID,ELEMENT_SET_NO,REV_AT_EPOCH,BSTAR,MEAN_MOTION_DOT,MEAN_MOTION_DDOT
SL-8 R/B,1985-006B,2026-07-01T21:29:15.438912,14.37840423,.00192011,74.0455,50.9983,295.9203,74.6988,0,U,15483,999,17044,.6422615E-4,.168E-5,0
SL-12 R/B(2),1985-042D,2026-07-01T19:34:30.485568,14.22008591,.00369761,71.1062,206.6098,305.8685,226.8470,0,U,15772,999,13061,.14388331E-4,-.16E-6,0
SL-14 R/B,1985-069B,2026-07-01T17:00:40.720896,14.86526736,.00190322,82.5274,277.7092,170.0595,190.1003,0,U,15945,999,18977,.49522519E-4,.464E-5,0
SL-16 R/B,1985-097B,2026-07-01T23:26:26.219040,14.16614786,.00052571,71.0031,259.9419,78.5650,93.6698,0,U,16182,999,10341,-.716384E-6,-.49E-6,0
SL-14 R/B,1986-006B,2026-07-01T20:32:43.990944,14.86958986,.00747353,82.5271,152.3090,253.8451,105.4532,0,U,16496,999,16617,.52692399E-4,.521E-5,0
COSMOS 1743,1986-034A,2026-07-01T19:53:18.724416,15.68335749,.00048661,82.5282,313.1499,218.9320,141.1592,0,U,16719,999,19808,.50947115E-3,.57438E-3,0
SL-14 R/B,1986-046B,2026-07-01T21:40:01.274592,14.85681898,.00223562,82.4827,332.2692,207.2019,152.8028,0,U,16792,999,14336,.52783022E-4,.484E-5,0
SL-14 R/B,1986-055B,2026-07-01T23:19:25.527072,14.85732781,.00177982,82.5197,19.2312,317.6360,156.6414,0,U,16882,999,13633,.43454497E-4,.402E-5,0
AJISAI (EGS),1986-061A,2026-07-01T22:09:38.889792,12.44516714,.00111364,50.0094,102.0816,218.0360,262.6652,0,U,16908,999,48222,-.55086853E-4,-.105E-5,0
SL-14 R/B,1987-024B,2026-07-01T21:28:20.726976,14.86223409,.00168664,82.5285,345.4248,240.1231,119.8310,0,U,17567,999,10509,.46899135E-4,.437E-5,0
COSMOS 1833,1987-027A,2026-07-01T23:22:40.412640,14.13060700,.00233831,70.9207,85.7887,30.4572,329.7901,0,U,17589,999,2646,.16650819E-3,.264E-5,0
SL-16 R/B,1987-027B,2026-07-01T21:32:34.692000,14.17174862,.00069603,71.0033,35.8296,296.4518,63.5891,0,U,17590,999,3152,.5711639E-4,.67E-6,0
SL-14 R/B,1987-038B,2026-07-01T17:54:45.262080,14.85453913,.00201549,82.5002,189.3579,143.8569,216.4015,0,U,17912,999,9616,.41564676E-4,.384E-5,0
COSMOS 1844,1987-041A,2026-07-01T22:58:07.999392,14.14572061,.0032115,70.8976,153.1520,213.9772,145.9294,0,U,17973,999,1974,.2113026E-3,.359E-5,0
SL-14 R/B,1987-055B,2026-07-01T21:43:30.919872,14.85720301,.00205077,82.4984,241.3551,0.3545,359.7682,0,U,18153,999,8689,.41468082E-4,.385E-5,0
COSMOS 1867,1987-060A,2026-07-01T20:58:22.838016,14.31517336,.00168433,65.0116,346.9269,282.1330,77.7867,0,U,18187,999,3628,.25643173E-4,-.32E-6,0
SL-14 R/B,1988-001B,2026-07-01T23:24:54.381024,14.85619591,.00170088,82.5133,87.8614,216.5024,143.5034,0,U,18749,999,5899,.43815626E-4,.404E-5,0
COSMOS 1933,1988-020A,2026-07-01T22:15:44.256384,15.18812224,.00050254,82.5136,137.8378,141.1432,219.0164,0,U,18958,999,6756,.19412339E-3,.407E-4,0
SL-3 R/B,1988-032B,2026-07-01T21:57:34.500096,15.20946677,.00250998,97.5261,165.9419,191.2860,168.7815,0,U,19046,999,6946,.21357239E-3,.4696E-4,0
SL-16 R/B,1988-039B,2026-07-01T16:57:22.821696,14.19630808,.00213593,71.0127,187.4565,171.0077,189.1436,0,U,19120,999,97456,.35705508E-4,.27E-6,0
COSMOS 1953,1988-050A,2026-07-01T20:44:28.061088,15.30180141,.00123278,82.5066,43.2317,81.5002,278.7635,0,U,19210,999,5523,.29156519E-3,.8565E-4,0
SL-8 R/B,1988-053B,2026-07-01T23:23:02.950080,14.38973254,.00192969,74.0476,261.8002,51.6824,120.6859,0,U,19257,999,99303,.76840047E-4,.211E-5,0
COSMOS 1975,1988-093A,2026-07-01T22:34:40.543392,15.29519026,.00123601,82.5187,2.8577,123.5823,236.6599,0,U,19573,999,3686,.27422231E-3,.7895E-4,0
SL-14 R/B,1988-093B,2026-07-01T20:04:56.733600,14.85752681,.00211974,82.5321,294.8918,24.4481,127.1340,0,U,19574,999,1796,.47772988E-4,.441E-5,0
SL-16 R/B,1988-102B,2026-07-01T16:43:57.584064,14.16169244,.0015053,71.0003,271.6081,205.3376,154.7011,0,U,19650,999,94303,.76886851E-4,.104E-5,0
INTERCOSMOS 24,1989-080A,2026-07-01T22:44:17.451744,12.59682038,.11878951,82.6050,30.0396,27.6851,338.2623,0,U,20261,999,68118,.18680465E-3,.656E-5,0
SL-14 R/B,1989-080C,2026-07-01T17:19:44.589504,12.50575762,.1228378,82.5942,99.9698,284.1302,62.6561,0,U,20262,999,67440,.46105995E-4,.152E-5,0
DELTA 1 R/B,1989-089B,2026-07-01T18:32:27.140640,14.50740527,.00703187,97.0633,11.9967,121.4689,239.3407,0,U,20323,999,91227,.89516052E-4,.329E-5,0
ARIANE 40 R/B,1990-005H,2026-07-01T21:57:50.029632,14.39935030,.00093999,98.2952,240.0730,214.8900,145.1674,0,U,20443,999,90924,.95221379E-4,.257E-5,0
DELTA 2 R/B(1),1990-008B,2026-07-01T22:37:59.129472,15.71224893,.00641802,35.6000,136.7735,253.2131,106.1561,0,U,20453,999,94402,.67236802E-3,.101038E-2,0
