SL-8 R/B                
1 15483U 85006B   26182.89531758  .00000168  00000+0  64226-4 0  9993
2 15483  74.0455  50.9983 0019201 295.9203  74.6988 14.37840423170449
SL-12 R/B(2)            
1 15772U 85042D   26182.81563062 -.00000016  00000+0  14388-4 0  9996
2 15772  71.1062 206.6098 0036976 305.8685 226.8470 14.22008591130610
SL-14 R/B               
1 15945U 85069B   26182.70880464  .00000464  00000+0  49523-4 0  9998
2 15945  82.5274 277.7092 0019032 170.0595 190.1003 14.86526736189774
SL-16 R/B               
1 16182U 85097B   26182.97669235 -.00000049  00000+0 -71638-6 0  9998
2 16182  71.0031 259.9419 0005257  78.5650  93.6698 14.16614786103415
SL-14 R/B               
1 16496U 86006B   26182.85606471  .00000521  00000+0  52692-4 0  9997
2 16496  82.5271 152.3090 0074735 253.8451 105.4532 14.86958986166172
COSMOS 1743             
1 16719U 86034A   26182.82868894  .00057438  00000+0  50947-3 0  9991
2 16719  82.5282 313.1499 0004866 218.9320 141.1592 15.68335749198082
SL-14 R/B               
1 16792U 86046B   26182.90279253  .00000484  00000+0  52783-4 0  9999
2 16792  82.4827 332.2692 0022356 207.2019 152.8028 14.85681898143365
SL-14 R/B               
1 16882U 86055B   26182.97182323  .00000402  00000+0  43454-4 0  9992
2 16882  82.5197  19.2312 0017798 317.6360 156.6414 14.85732781136334
AJISAI (EGS)            
1 16908U 86061A   26182.92336678 -.00000105  00000+0 -55087-4 0  9994
2 16908  50.0094 102.0816 0011136 218.0360 262.6652 12.44516714482226
SL-14 R/B               
1 17567U 87024B   26182.89468434  .00000437  00000+0  46899-4 0  9995
2 17567  82.5285 345.4248 0016866 240.1231 119.8310 14.86223409105095
COSMOS 1833             
1 17589U 87027A   26182.97407885  .00000264  00000+0  16651-3 0  9994
2 17589  70.9207  85.7887 0023383  30.4572 329.7901 14.13060700 26461
SL-16 R/B               
1 17590U 87027B   26182.89762375  .00000067  00000+0  57116-4 0  9998
2 17590  71.0033  35.8296 0006960 296.4518  63.5891 14.17174862 31521
SL-14 R/B               
1 17912U 87038B   26182.74635720  .00000384  00000+0  41565-4 0  9998
2 17912  82.5002 189.3579 0020154 143.8569 216.4015 14.85453913 96163
COSMOS 1844             
1 17973U 87041A   26182.95703703  .00000359  00000+0  21130-3 0  9996
2 17973  70.8976 153.1520 0032115 213.9772 145.9294 14.14572061 19742
SL-14 R/B               
1 18153U 87055B   26182.90521898  .00000385  00000+0  41468-4 0  9996
2 18153  82.4984 241.3551 0020507   0.3545 359.7682 14.85720301 86899
COSMOS 1867             
1 18187U 87060A   26182.87387544 -.00000032  00000+0  25643-4 0  9990
2 18187  65.0116 346.9269 0016843 282.1330  77.7867 14.31517336 36281
SL-14 R/B               
1 18749U 88001B   26182.97562941  .00000404  00000+0  43816-4 0  9991
2 18749  82.5133  87.8614 0017008 216.5024 143.5034 14.85619591 58993
COSMOS 1933             
1 18958U 88020A   26182.92759556  .00004070  00000+0  19412-3 0  9996
2 18958  82.5136 137.8378 0005025 141.1432 219.0164 15.18812224 67564
SL-3 R/B                
1 19046U 88032B   26182.91498264  .00004696  00000+0  21357-3 0  9998
2 19046  97.5261 165.9419 0025099 191.2860 168.7815 15.20946677 69467
SL-16 R/B               
1 19120U 88039B   26182.70651414  .00000027  00000+0  35706-4 0  9991
2 19120  71.0127 187.4565 0021359 171.0077 189.1436 14.19630808974565
COSMOS 1953             
1 19210U 88050A   26182.86421367  .00008565  00000+0  29157-3 0  9990
2 19210  82.5066  43.2317 0012327  81.5002 278.7635 15.30180141 55230
SL-8 R/B                
1 19257U 88053B   26182.97433970  .00000211  00000+0  76840-4 0  9991
2 19257  74.0476 261.8002 0019296  51.6824 120.6859 14.38973254993037
COSMOS 1975             
1 19573U 88093A   26182.94074703  .00007895  00000+0  27422-3 0  9994
2 19573  82.5187   2.8577 0012360 123.5823 236.6599 15.29519026 36866
SL-14 R/B               
1 19574U 88093B   26182.83676775  .00000441  00000+0  47773-4 0  9992
2 19574  82.5321 294.8918 0021197  24.4481 127.1340 14.85752681 17961
SL-16 R/B               
1 19650U 88102B   26182.69719426  .00000104  00000+0  76887-4 0  9997
2 19650  71.0003 271.6081 0015053 205.3376 154.7011 14.16169244943035
INTERCOSMOS 24          
1 20261U 89080A   26182.94742421  .00000656  00000+0  18680-3 0  9990
2 20261  82.6050  30.0396 1187895  27.6851 338.2623 12.59682038681188
SL-14 R/B               
1 20262U 89080C   26182.72204386  .00000152  00000+0  46106-4 0  9996
2 20262  82.5942  99.9698 1228378 284.1302  62.6561 12.50575762674402
DELTA 1 R/B             
1 20323U 89089B   26182.77253635  .00000329  00000+0  89516-4 0  9997
2 20323  97.0633  11.9967 0070318 121.4689 239.3407 14.50740527912277
ARIANE 40 R/B           
1 20443U 90005H   26182.91516238  .00000257  00000+0  95221-4 0  9997
2 20443  98.2952 240.0730 0009399 214.8900 145.1674 14.39935030909249
DELTA 2 R/B(1)          
1 20453U 90008B   26182.94304548  .00101038  00000+0  67237-3 0  9997
2 20453  35.6000 136.7735 0064180 253.2131 106.1561 15.71224893944029
